{"type": "FeatureCollection", "features": [{"type": "Feature", "properties": {"norad_id": 28890, "name": "BEIJING 1", "group": "dmc", "lat": 38.866747414696434, "lon": -52.45895903219655, "alt_km": 668.9324323318597, "timestamp": "2025-12-19T06:59:43.570465+00:00", "meta": {"OBJECT_NAME": "BEIJING 1", "OBJECT_ID": "2005-043A", "EPOCH": "2025-12-18T22:09:03.923712", "MEAN_MOTION": 14.63371494, "ECCENTRICITY": 0.00156119, "INCLINATION": 98.265, "RA_OF_ASC_NODE": 120.4442, "ARG_OF_PERICENTER": 122.9902, "MEAN_ANOMALY": 237.2803, "EPHEMERIS_TYPE": 0, "CLASSIFICATION_TYPE": "U", "NORAD_CAT_ID": 28890, "ELEMENT_SET_NO": 999, "REV_AT_EPOCH": 7428, "BSTAR": 5.1524048e-05, "MEAN_MOTION_DOT": 2.18e-06, "MEAN_MOTION_DDOT": 0}, "tle": {"line1": "1 28890U 05043A   25352.92296208  .00000218  00000+0  51524-4 0  9995", "line2": "2 28890  98.2650 120.4442 0015611 122.9902 237.2803 14.63371494 74283"}}, "geometry": {"type": "Point", "coordinates": [-52.45895903219655, 38.866747414696434]}}, {"type": "Feature", "properties": {"norad_id": 33320, "name": "HUANJING 1A (HJ-1A)", "group": "dmc", "lat": -78.04799815180554, "lon": 20.754765610310553, "alt_km": 626.9452038041618, "timestamp": "2025-12-19T06:59:43.570489+00:00", "meta": {"OBJECT_NAME": "HUANJING 1A (HJ-1A)", "OBJECT_ID": "2008-041A", "EPOCH": "2025-12-18T23:15:50.508576", "MEAN_MOTION": 14.83412048, "ECCENTRICITY": 0.00197139, "INCLINATION": 97.6535, "RA_OF_ASC_NODE": 341.0078, "ARG_OF_PERICENTER": 14.6493, "MEAN_ANOMALY": 345.5289, "EPHEMERIS_TYPE": 0, "CLASSIFICATION_TYPE": "U", "NORAD_CAT_ID": 33320, "ELEMENT_SET_NO": 999, "REV_AT_EPOCH": 93168, "BSTAR": 8.9649061e-05, "MEAN_MOTION_DOT": 6.87e-06, "MEAN_MOTION_DDOT": 0}, "tle": {"line1": "1 33320U 08041A   25352.96933459  .00000687  00000+0  89649-4 0  9999", "line2": "2 33320  97.6535 341.0078 0019713  14.6493 345.5289 14.83412048931687"}}, "geometry": {"type": "Point", "coordinates": [20.754765610310553, -78.04799815180554]}}, {"type": "Feature", "properties": {"norad_id": 33321, "name": "HUANJING 1B (HJ-1B)", "group": "dmc", "lat": 51.86225667442318, "lon": 174.83923821232557, "alt_km": 607.490969892975, "timestamp": "2025-12-19T06:59:43.570504+00:00", "meta": {"OBJECT_NAME": "HUANJING 1B (HJ-1B)", "OBJECT_ID": "2008-041B", "EPOCH": "2025-12-18T23:56:53.642976", "MEAN_MOTION": 14.82836241, "ECCENTRICITY": 0.00380512, "INCLINATION": 97.6395, "RA_OF_ASC_NODE": 344.7158, "ARG_OF_PERICENTER": 55.867, "MEAN_ANOMALY": 304.6144, "EPHEMERIS_TYPE": 0, "CLASSIFICATION_TYPE": "U", "NORAD_CAT_ID": 33321, "ELEMENT_SET_NO": 999, "REV_AT_EPOCH": 93170, "BSTAR": 0.00011338759, "MEAN_MOTION_DOT": 8.78e-06, "MEAN_MOTION_DDOT": 0}, "tle": {"line1": "1 33321U 08041B   25352.99784309  .00000878  00000+0  11339-3 0  9993", "line2": "2 33321  97.6395 344.7158 0038051  55.8670 304.6144 14.82836241931704"}}, "geometry": {"type": "Point", "coordinates": [174.83923821232557, 51.86225667442318]}}, {"type": "Feature", "properties": {"norad_id": 33446, "name": "YAOGAN-4", "group": "dmc", "lat": 35.20677657361319, "lon": -82.309861044598, "alt_km": 619.309249036327, "timestamp": "2025-12-19T06:59:43.570516+00:00", "meta": {"OBJECT_NAME": "YAOGAN-4", "OBJECT_ID": "2008-061A", "EPOCH": "2025-12-18T19:29:52.486656", "MEAN_MOTION": 14.82699473, "ECCENTRICITY": 0.00132112, "INCLINATION": 97.9189, "RA_OF_ASC_NODE": 282.8521, "ARG_OF_PERICENTER": 302.0328, "MEAN_ANOMALY": 57.9601, "EPHEMERIS_TYPE": 0, "CLASSIFICATION_TYPE": "U", "NORAD_CAT_ID": 33446, "ELEMENT_SET_NO": 999, "REV_AT_EPOCH": 91893, "BSTAR": 0.00013226403, "MEAN_MOTION_DOT": 1.015e-05, "MEAN_MOTION_DDOT": 0}, "tle": {"line1": "1 33446U 08061A   25352.81241304  .00001015  00000+0  13226-3 0  9998", "line2": "2 33446  97.9189 282.8521 0013211 302.0328  57.9601 14.82699473918930"}}, "geometry": {"type": "Point", "coordinates": [-82.309861044598, 35.20677657361319]}}, {"type": "Feature", "properties": {"norad_id": 35681, "name": "DEIMOS-1", "group": "dmc", "lat": -16.91152112203676, "lon": 155.951030957204, "alt_km": 650.057486470273, "timestamp": "2025-12-19T06:59:43.570527+00:00", "meta": {"OBJECT_NAME": "DEIMOS-1", "OBJECT_ID": "2009-041A", "EPOCH": "2025-12-18T22:55:54.793056", "MEAN_MOTION": 14.74962914, "ECCENTRICITY": 0.00026414, "INCLINATION": 97.7141, "RA_OF_ASC_NODE": 153.2689, "ARG_OF_PERICENTER": 69.7703, "MEAN_ANOMALY": 290.3791, "EPHEMERIS_TYPE": 0, "CLASSIFICATION_TYPE": "U", "NORAD_CAT_ID": 35681, "ELEMENT_SET_NO": 999, "REV_AT_EPOCH": 88031, "BSTAR": 0.00012056233, "MEAN_MOTION_DOT": 7.63e-06, "MEAN_MOTION_DDOT": 0}, "tle": {"line1": "1 35681U 09041A   25352.95549529  .00000763  00000+0  12056-3 0  9994", "line2": "2 35681  97.7141 153.2689 0002641  69.7703 290.3791 14.74962914880311"}}, "geometry": {"type": "Point", "coordinates": [155.951030957204, -16.91152112203676]}}, {"type": "Feature", "properties": {"norad_id": 35683, "name": "UK-DMC 2", "group": "dmc", "lat": 13.76869017806214, "lon": 126.06987760437625, "alt_km": 643.9979609662369, "timestamp": "2025-12-19T06:59:43.570538+00:00", "meta": {"OBJECT_NAME": "UK-DMC 2", "OBJECT_ID": "2009-041C", "EPOCH": "2025-12-18T22:47:44.124000", "MEAN_MOTION": 14.7563493, "ECCENTRICITY": 0.00014945, "INCLINATION": 97.8557, "RA_OF_ASC_NODE": 127.6768, "ARG_OF_PERICENTER": 94.3826, "MEAN_ANOMALY": 265.7555, "EPHEMERIS_TYPE": 0, "CLASSIFICATION_TYPE": "U", "NORAD_CAT_ID": 35683, "ELEMENT_SET_NO": 999, "REV_AT_EPOCH": 87998, "BSTAR": 0.00012823122, "MEAN_MOTION_DOT": 8.26e-06, "MEAN_MOTION_DDOT": 0}, "tle": {"line1": "1 35683U 09041C   25352.94981625  .00000826  00000+0  12823-3 0  9994", "line2": "2 35683  97.8557 127.6768 0001494  94.3826 265.7555 14.75634930879983"}}, "geometry": {"type": "Point", "coordinates": [126.06987760437625, 13.76869017806214]}}, {"type": "Feature", "properties": {"norad_id": 40715, "name": "DMC3-FM1", "group": "dmc", "lat": -64.81620687093904, "lon": -123.10242081569857, "alt_km": 616.411989075611, "timestamp": "2025-12-19T06:59:43.570549+00:00", "meta": {"OBJECT_NAME": "DMC3-FM1", "OBJECT_ID": "2015-032A", "EPOCH": "2025-12-18T21:35:29.956992", "MEAN_MOTION": 14.8544948, "ECCENTRICITY": 0.00042866, "INCLINATION": 97.6693, "RA_OF_ASC_NODE": 219.8674, "ARG_OF_PERICENTER": 296.6458, "MEAN_ANOMALY": 63.4319, "EPHEMERIS_TYPE": 0, "CLASSIFICATION_TYPE": "U", "NORAD_CAT_ID": 40715, "ELEMENT_SET_NO": 999, "REV_AT_EPOCH": 56314, "BSTAR": 3.7409392e-05, "MEAN_MOTION_DOT": 2.71e-06, "MEAN_MOTION_DDOT": 0}, "tle": {"line1": "1 40715U 15032A   25352.89965228  .00000271  00000+0  37409-4 0  9990", "line2": "2 40715  97.6693 219.8674 0004286 296.6458  63.4319 14.85449480563148"}}, "geometry": {"type": "Point", "coordinates": [-123.10242081569857, -64.81620687093904]}}, {"type": "Feature", "properties": {"norad_id": 40716, "name": "DMC3-FM2", "group": "dmc", "lat": 5.948290699464556, "lon": 42.498294359767435, "alt_km": 616.4519676690343, "timestamp": "2025-12-19T06:59:43.570560+00:00", "meta": {"OBJECT_NAME": "DMC3-FM2", "OBJECT_ID": "2015-032B", "EPOCH": "2025-12-18T22:07:53.044608", "MEAN_MOTION": 14.85451451, "ECCENTRICITY": 0.00048857, "INCLINATION": 97.675, "RA_OF_ASC_NODE": 221.3372, "ARG_OF_PERICENTER": 302.1656, "MEAN_ANOMALY": 57.9085, "EPHEMERIS_TYPE": 0, "CLASSIFICATION_TYPE": "U", "NORAD_CAT_ID": 40716, "ELEMENT_SET_NO": 999, "REV_AT_EPOCH": 56314, "BSTAR": 7.9739842e-05, "MEAN_MOTION_DOT": 6.36e-06, "MEAN_MOTION_DDOT": 0}, "tle": {"line1": "1 40716U 15032B   25352.92214172  .00000636  00000+0  79740-4 0  9999", "line2": "2 40716  97.6750 221.3372 0004885 302.1656  57.9085 14.85451451563143"}}, "geometry": {"type": "Point", "coordinates": [42.498294359767435, 5.948290699464556]}}, {"type": "Feature", "properties": {"norad_id": 40717, "name": "DMC3-FM3", "group": "dmc", "lat": 57.25078204423478, "lon": -148.78067610349416, "alt_km": 607.9427700526976, "timestamp": "2025-12-19T06:59:43.570570+00:00", "meta": {"OBJECT_NAME": "DMC3-FM3", "OBJECT_ID": "2015-032C", "EPOCH": "2025-12-18T22:39:05.717952", "MEAN_MOTION": 14.85440965, "ECCENTRICITY": 0.00041842, "INCLINATION": 97.6806, "RA_OF_ASC_NODE": 222.9953, "ARG_OF_PERICENTER": 304.5032, "MEAN_ANOMALY": 55.5788, "EPHEMERIS_TYPE": 0, "CLASSIFICATION_TYPE": "U", "NORAD_CAT_ID": 40717, "ELEMENT_SET_NO": 999, "REV_AT_EPOCH": 56315, "BSTAR": 0.00012713807, "MEAN_MOTION_DOT": 1.044e-05, "MEAN_MOTION_DDOT": 0}, "tle": {"line1": "1 40717U 15032C   25352.94381618  .00001044  00000+0  12714-3 0  9993", "line2": "2 40717  97.6806 222.9953 0004184 304.5032  55.5788 14.85440965563157"}}, "geometry": {"type": "Point", "coordinates": [-148.78067610349416, 57.25078204423478]}}]}